NORAD_CAT_ID,OBJECT_NAME,OBJECT_TYPE,EPOCH,MEAN_MOTION,ECCENTRICITY,INCLINATION,RA_OF_ASC_NODE,ARG_OF_PERICENTER,MEAN_ANOMALY,BSTAR,MEAN_MOTION_DOT,MEAN_MOTION_DDOT,TLE_LINE0,TLE_LINE1,TLE_LINE2,SEMIMAJOR_AXIS,PERIOD,APOGEE,PERIGEE,DECAYED
50205.0,STARLINK-3260,PAYLOAD,2022-04-20 14:00:01,15.73250023,0.0007143,53.2136,112.9027,296.4242,252.7328,-0.0006241,-0.00087649,0.0,0 STARLINK-3260,1 50205U 21125BB  22110.58334491 -.00087649  00000-0 -62410-3 0  9998,2 50205  53.2136 112.9027 0007143 296.4242 252.7328 15.73250023 22258,6727.753000000002,91.53,354.423,344.81199999999984,0.0
50205.0,STARLINK-3260,PAYLOAD,2022-04-20 22:00:00,15.73158984,0.0007076,53.214,111.2511,294.3057,343.8205,0.00031632,0.00043982,0.0,0 STARLINK-3260,1 50205U 21125BB  22110.91667824  .00043982  00000-0  31632-3 0  9996,2 50205  53.2140 111.2511 0007076 294.3057 343.8205 15.73158984  3695,6728.012,91.536,354.63800000000015,345.116,0.0
50205.0,STARLINK-3260,PAYLOAD,2022-04-21 06:00:00,15.72875575,0.0007139,53.2168,109.6008,297.1129,69.9423,0.0029902,0.00435778,0.0,0 STARLINK-3260,1 50205U 21125BB  22111.25001157  .00435778  00000-0  29902-2 0  9999,2 50205  53.2168 109.6008 0007139 297.1129  69.9423 15.72875575 22362,6728.82,91.552,355.48900000000015,345.88199999999995,0.0
50205.0,STARLINK-3260,PAYLOAD,2022-04-21 14:00:01,15.73270195,0.0007151,53.2135,107.9538,296.4726,159.4641,-0.00060665,-0.00085313,0.0,0 STARLINK-3260,1 50205U 21125BB  22111.58334491 -.00085313  00000-0 -60665-3 0  9995,2 50205  53.2135 107.9538 0007151 296.4726 159.4641 15.73270195  3706,6727.695,91.529,354.371,344.749,0.0
50205.0,STARLINK-3260,PAYLOAD,2022-04-21 22:00:00,15.73217885,0.0007061,53.2137,106.3026,293.0868,251.8356,0.00011071,0.0001496999999999,0.0,0 STARLINK-3260,1 50205U 21125BB  22111.91667824  .00014970  00000-0  11071-3 0  9997,2 50205  53.2137 106.3026 0007061 293.0868 251.8356 15.73217885  3687,6727.844,91.532,354.46,344.959,0.0
50205.0,STARLINK-3260,PAYLOAD,2022-04-22 06:00:00,15.73198466,0.0007127999999999,53.2144,104.6554,294.7308,339.1568,0.00036791,0.00051392,0.0,0 STARLINK-3260,1 50205U 21125BB  22112.25001157  .00051392  00000-0  36791-3 0  9991,2 50205  53.2144 104.6554 0007128 294.7308 339.1568 15.73198466 22514,6727.9,91.533,354.56,344.969,0.0
50205.0,STARLINK-3260,PAYLOAD,2022-04-22 14:00:01,15.73274501,0.0007291,53.2141,103.0052,293.6453,69.1709,-0.00090948,-0.00127004,0.0,0 STARLINK-3260,1 50205U 21125BB  22112.58334491 -.00127004  00000-0 -90948-3 0  9997,2 50205  53.2141 103.0052 0007291 293.6453  69.1709 15.73274501  3709,6727.683000000001,91.529,354.45300000000015,344.64300000000014,0.0
50205.0,STARLINK-3260,PAYLOAD,2022-04-22 16:00:00,15.73250952,0.0007264999999999,53.2144,102.5921,292.8182,182.2486,-0.00081004,-0.00113251,0.0,0 STARLINK-3260,1 50205U 21125BB  22112.66667824 -.00113251  00000-0 -81004-3 0  9997,2 50205  53.2144 102.5921 0007265 292.8182 182.2486 15.73250952 22582,6727.75,91.53,354.50300000000016,344.727,0.0
50205.0,STARLINK-3260,PAYLOAD,2022-04-23 06:00:02,15.73140841,0.0007296,53.2143,99.7063,292.6175,248.1424,0.0003723,0.0005189,0.0,0 STARLINK-3260,1 50205U 21125BB  22113.25002315  .00051890  00000-0  37230-3 0  9991,2 50205  53.2143  99.7063 0007296 292.6175 248.1424 15.73140841 22678,6728.064,91.537,354.838,345.02,0.0
50205.0,STARLINK-3260,PAYLOAD,2022-04-23 14:00:01,15.7322313,0.0007348,53.2137,98.0563,292.0489,337.5115,-0.00025859,-0.00036862,0.0,0 STARLINK-3260,1 50205U 21125BB  22113.58334491 -.00036862  00000-0 -25859-3 0  9998,2 50205  53.2137  98.0563 0007348 292.0489 337.5115 15.73223130  3670,6727.829000000002,91.532,354.63800000000015,344.751,0.0
50205.0,STARLINK-3260,PAYLOAD,2022-04-24 06:00:00,15.73244474,0.0007361,53.214,94.7579,291.4246,156.0223,-0.0002699,-0.00038475,0.0,0 STARLINK-3260,1 50205U 21125BB  22114.25001157 -.00038475  00000-0 -26990-3 0  9992,2 50205  53.2140  94.7579 0007361 291.4246 156.0223 15.73244474 22830,6727.768,91.531,354.586,344.681,0.0
50205.0,STARLINK-3260,PAYLOAD,2022-04-24 14:00:01,15.73262352,0.0007434,53.2141,93.1075,290.2792,246.1194,-0.00039468,-0.00055903,0.0,0 STARLINK-3260,1 50205U 21125BB  22114.58334491 -.00055903  00000-0 -39468-3 0  9997,2 50205  53.2141  93.1075 0007434 290.2792 246.1194 15.73262352  3695,6727.717,91.53,354.584,344.581,0.0
50205.0,STARLINK-3260,PAYLOAD,2022-04-25 14:00:01,15.732075199999995,0.0007601,53.2136,88.1583,288.2237,154.9515,-0.00049575,-0.00069787,0.0,0 STARLINK-3260,1 50205U 21125BB  22115.58334491 -.00069787  00000-0 -49575-3 0  9993,2 50205  53.2136  88.1583 0007601 288.2237 154.9515 15.73207520 23044,6727.874,91.533,354.853,344.625,0.0
50205.0,STARLINK-3260,PAYLOAD,2022-04-25 22:00:00,15.73165237,0.0007526,53.2139,86.5077,286.3001,245.7836,0.00058977,0.00082967,0.0,0 STARLINK-3260,1 50205U 21125BB  22115.91667824  .00082967  00000-0  58977-3 0  9998,2 50205  53.2139  86.5077 0007526 286.3001 245.7836 15.73165237 23099,6727.994000000002,91.535,354.923,344.796,0.0
50205.0,STARLINK-3260,PAYLOAD,2022-04-26 14:00:01,15.73250696,0.0007711,53.2141,83.2092,286.6606,63.3652,-0.00050342,-0.00070982,0.0,0 STARLINK-3260,1 50205U 21125BB  22116.58335648 -.00070982  00000-0 -50342-3 0  9992,2 50205  53.2141  83.2092 0007711 286.6606  63.3652 15.73250696 23200,6727.751,91.53,354.80300000000005,344.42800000000005,0.0
50205.0,STARLINK-3260,PAYLOAD,2022-04-26 22:00:00,15.73221552,0.0007659,53.2147,81.5585,285.3254,153.5892,-0.00013029,-0.00018926,0.0,0 STARLINK-3260,1 50205U 21125BB  22116.91667824 -.00018926  00000-0 -13029-3 0  9994,2 50205  53.2147  81.5585 0007659 285.3254 153.5892 15.73221552 23252,6727.834,91.532,354.852,344.546,0.0
50205.0,STARLINK-3260,PAYLOAD,2022-04-27 14:00:01,15.73186839,0.0007867999999999,53.214,78.2599,285.1855,331.6314,0.00018727,0.00025765,0.0,0 STARLINK-3260,1 50205U 21125BB  22117.58335648  .00025765  00000-0  18727-3 0  9991,2 50205  53.2140  78.2599 0007868 285.1855 331.6314 15.73186839  3704,6727.933000000001,91.534,355.091,344.504,0.0
50205.0,STARLINK-3260,PAYLOAD,2022-04-28 06:00:00,15.73248159,0.0007959,53.2144,74.9622,284.9487,149.7077,8.298299999999999e-05,0.00011076,0.0,0 STARLINK-3260,1 50205U 21125BB  22118.25001157  .00011076  00000-0  82983-4 0  9997,2 50205  53.2144  74.9622 0007959 284.9487 149.7077 15.73248159 23460,6727.7580000000025,91.53,354.977,344.26800000000014,0.0
50205.0,STARLINK-3260,PAYLOAD,2022-04-28 14:00:01,15.73270078,0.0008035,53.2158,73.3108,282.2658,241.378,-0.00043007,-0.00060863,0.0,0 STARLINK-3260,1 50205U 21125BB  22118.58334491 -.00060863  00000-0 -43007-3 0  9996,2 50205  53.2158  73.3108 0008035 282.2658 241.3780 15.73270078  3704,6727.695,91.529,354.966,344.155,0.0
50205.0,STARLINK-3260,PAYLOAD,2022-04-28 22:00:01,15.73066035,0.0007968,53.2166,71.6598,279.4771,333.2764,-0.0029597,-0.00395898,0.0,0 STARLINK-3260,1 50205U 21125BB  22118.91668981 -.00395898  00000-0 -29597-2 0  9993,2 50205  53.2166  71.6598 0007968 279.4771 333.2764 15.73066035 23560,6728.276999999999,91.541,355.50300000000016,344.781,0.0
50205.0,STARLINK-3260,PAYLOAD,2022-04-29 06:00:00,15.73067596,0.0007945,53.2176,70.0151,273.9463,67.2708,-0.0056457,-0.00726396,0.0,0 STARLINK-3260,1 50205U 21125BB  22119.25001157 -.00726396  00000-0 -56457-2 0  9993,2 50205  53.2176  70.0151 0007945 273.9463  67.2708 15.73067596 23623,6728.273,91.541,355.483,344.792,0.0
50205.0,STARLINK-3260,PAYLOAD,2022-04-29 14:00:01,15.72556587,0.0005681,53.2175,68.3675,269.7612,159.907,-0.0058071999999999,-0.00729526,0.0,0 STARLINK-3260,1 50205U 21125BB  22119.58334491 -.00729526  00000-0 -58072-2 0  9992,2 50205  53.2175  68.3675 0005681 269.7612 159.9070 15.72556587  3707,6729.73,91.571,355.418,347.772,0.0
50205.0,STARLINK-3260,PAYLOAD,2022-04-29 22:00:00,15.72040838,0.0006219999999999,53.2176,66.7226,307.8376,209.6674,-0.0058531999999999,-0.00720276,0.0,0 STARLINK-3260,1 50205U 21125BB  22119.91667824 -.00720276  00000-0 -58532-2 0  9992,2 50205  53.2176  66.7226 0006220 307.8376 209.6674 15.72040838 23727,6731.2019999999975,91.601,357.254,348.88,0.0
50205.0,STARLINK-3260,PAYLOAD,2022-04-30 14:00:01,15.70964628,9.07e-05,53.2172,63.4361,329.7682,1.5956,-0.0054037,-0.00639861,0.0,0 STARLINK-3260,1 50205U 21125BB  22120.58334491 -.00639861  00000-0 -54037-2 0  9993,2 50205  53.2172  63.4361 0000907 329.7682   1.5956 15.70964628 23830,6734.276,91.663,356.75199999999984,355.53,0.0
50205.0,STARLINK-3260,PAYLOAD,2022-04-30 22:00:00,15.70469383,9.29e-05,53.2171,61.7944,58.5978,358.7571,-0.0057426,-0.00664007,0.0,0 STARLINK-3260,1 50205U 21125BB  22120.91667824 -.00664007  00000-0 -57426-2 0  9994,2 50205  53.2171  61.7944 0000929  58.5978 358.7571 15.70469383  3663,6735.691999999999,91.692,358.182,356.931,0.0
50205.0,STARLINK-3260,PAYLOAD,2022-05-01 06:00:00,15.6999668,0.0001363,53.2177,60.1585,51.1949,91.52,-0.006312,-0.00711491,0.0,0 STARLINK-3260,1 50205U 21125BB  22121.25001157 -.00711491  00000-0 -63120-2 0  9991,2 50205  53.2177  60.1585 0001363  51.1949  91.5200 15.69996680 23939,6737.044,91.72,359.827,357.99,0.0
50205.0,STARLINK-3260,PAYLOAD,2022-05-01 14:00:01,15.69491604,0.0001178,53.2177,58.5182,80.4065,147.0783,-0.0065239999999999,-0.00719295,0.0,0 STARLINK-3260,1 50205U 21125BB  22121.58334491 -.00719295  00000-0 -65240-2 0  9992,2 50205  53.2177  58.5182 0001178  80.4065 147.0783 15.69491604  3680,6738.489000000001,91.749,361.148,359.56,0.0
50205.0,STARLINK-3260,PAYLOAD,2022-05-01 22:00:01,15.68871216,0.0001169,53.2174,56.8788,87.1084,224.6588,-0.0052269,-0.00571764,0.0,0 STARLINK-3260,1 50205U 21125BB  22121.91668981 -.00571764  00000-0 -52269-2 0  9997,2 50205  53.2174  56.8788 0001169  87.1084 224.6588 15.68871216  3679,6740.265,91.786,362.918,361.342,0.0
50205.0,STARLINK-3260,PAYLOAD,2022-05-02 06:00:00,15.68468202,0.0001074,53.2174,55.2473,64.8432,330.3441,-0.0067485,-0.00713565,0.0,0 STARLINK-3260,1 50205U 21125BB  22122.25001157 -.00713565  00000-0 -67485-2 0  9994,2 50205  53.2174  55.2473 0001074  64.8432 330.3441 15.68468202 24096,6741.42,91.809,364.009,362.561,0.0
